[{"OBJECT_NAME":"STARLINK-36192","OBJECT_ID":"2025-293X","EPOCH":"2025-12-21T14:00:01.999872","MEAN_MOTION":15.90313058,"ECCENTRICITY":0.00042776,"INCLINATION":69.9924,"RA_OF_ASC_NODE":298.0577,"ARG_OF_PERICENTER":262.9237,"MEAN_ANOMALY":69.5662,"EPHEMERIS_TYPE":0,"CLASSIFICATION_TYPE":"U","NORAD_CAT_ID":67024,"ELEMENT_SET_NO":999,"REV_AT_EPOCH":164,"BSTAR":-0.0057924609,"MEAN_MOTION_DOT":-0.01754495,"MEAN_MOTION_DDOT":0.00083981989},{"OBJECT_NAME":"STARLINK-36178","OBJECT_ID":"2025-293Y","EPOCH":"2025-12-21T20:00:01.999008","MEAN_MOTION":15.89500842,"ECCENTRICITY":0.0004133,"INCLINATION":69.9925,"RA_OF_ASC_NODE":297.3306,"ARG_OF_PERICENTER":258.1327,"MEAN_ANOMALY":67.2595,"EPHEMERIS_TYPE":0,"CLASSIFICATION_TYPE":"U","NORAD_CAT_ID":67025,"ELEMENT_SET_NO":999,"REV_AT_EPOCH":168,"BSTAR":-0.0066159,"MEAN_MOTION_DOT":-0.01921391,"MEAN_MOTION_DDOT":0.00098673},{"OBJECT_NAME":"STARLINK-36176","OBJECT_ID":"2025-293Z","EPOCH":"2025-12-21T20:00:01.999008","MEAN_MOTION":15.89394379,"ECCENTRICITY":0.0004294,"INCLINATION":69.9922,"RA_OF_ASC_NODE":297.3242,"ARG_OF_PERICENTER":256.5247,"MEAN_ANOMALY":74.2475,"EPHEMERIS_TYPE":0,"CLASSIFICATION_TYPE":"U","NORAD_CAT_ID":67026,"ELEMENT_SET_NO":999,"REV_AT_EPOCH":168,"BSTAR":-0.006353,"MEAN_MOTION_DOT":-0.01836376,"MEAN_MOTION_DDOT":0.00090596},{"OBJECT_NAME":"STARLINK-36171","OBJECT_ID":"2025-293AA","EPOCH":"2025-12-21T20:00:01.999008","MEAN_MOTION":15.89450208,"ECCENTRICITY":0.0004252,"INCLINATION":69.9921,"RA_OF_ASC_NODE":297.3271,"ARG_OF_PERICENTER":256.6124,"MEAN_ANOMALY":71.8544,"EPHEMERIS_TYPE":0,"CLASSIFICATION_TYPE":"U","NORAD_CAT_ID":67027,"ELEMENT_SET_NO":999,"REV_AT_EPOCH":168,"BSTAR":-0.0065681,"MEAN_MOTION_DOT":-0.01903004,"MEAN_MOTION_DDOT":0.00096869},{"OBJECT_NAME":"STARLINK-36132","OBJECT_ID":"2025-293AB","EPOCH":"2025-12-21T20:00:01.999008","MEAN_MOTION":15.89415375,"ECCENTRICITY":0.0004121,"INCLINATION":69.9925,"RA_OF_ASC_NODE":297.3179,"ARG_OF_PERICENTER":262.7296,"MEAN_ANOMALY":73.3575,"EPHEMERIS_TYPE":0,"CLASSIFICATION_TYPE":"U","NORAD_CAT_ID":67028,"ELEMENT_SET_NO":999,"REV_AT_EPOCH":169,"BSTAR":-0.0065472,"MEAN_MOTION_DOT":-0.01893669,"MEAN_MOTION_DDOT":0.00095952},{"OBJECT_NAME":"STARLINK-36190","OBJECT_ID":"2025-293AC","EPOCH":"2025-12-21T20:00:01.999008","MEAN_MOTION":15.89444483,"ECCENTRICITY":0.0004186,"INCLINATION":69.9926,"RA_OF_ASC_NODE":297.3217,"ARG_OF_PERICENTER":262.1621,"MEAN_ANOMALY":70.953,"EPHEMERIS_TYPE":0,"CLASSIFICATION_TYPE":"U","NORAD_CAT_ID":67029,"ELEMENT_SET_NO":999,"REV_AT_EPOCH":168,"BSTAR":-0.0065509,"MEAN_MOTION_DOT":-0.01897505,"MEAN_MOTION_DDOT":0.00096342},{"OBJECT_NAME":"STARLINK-36138","OBJECT_ID":"2025-294A","EPOCH":"2025-12-21T20:00:01.999008","MEAN_MOTION":15.85480003,"ECCENTRICITY":0.0001937,"INCLINATION":42.9998,"RA_OF_ASC_NODE":126.5331,"ARG_OF_PERICENTER":277.4241,"MEAN_ANOMALY":1.3835,"EPHEMERIS_TYPE":0,"CLASSIFICATION_TYPE":"U","NORAD_CAT_ID":67030,"ELEMENT_SET_NO":999,"REV_AT_EPOCH":157,"BSTAR":-0.0084926,"MEAN_MOTION_DOT":-0.01852875,"MEAN_MOTION_DDOT":0},{"OBJECT_NAME":"STARLINK-36150","OBJECT_ID":"2025-294B","EPOCH":"2025-12-21T20:00:01.999008","MEAN_MOTION":15.85519344,"ECCENTRICITY":0.0001566,"INCLINATION":43,"RA_OF_ASC_NODE":126.5286,"ARG_OF_PERICENTER":287.9963,"MEAN_ANOMALY":352.5414,"EPHEMERIS_TYPE":0,"CLASSIFICATION_TYPE":"U","NORAD_CAT_ID":67031,"ELEMENT_SET_NO":999,"REV_AT_EPOCH":176,"BSTAR":-0.0087244,"MEAN_MOTION_DOT":-0.01899825,"MEAN_MOTION_DDOT":0},{"OBJECT_NAME":"STARLINK-36131","OBJECT_ID":"2025-294C","EPOCH":"2025-12-21T20:00:01.999008","MEAN_MOTION":15.85475936,"ECCENTRICITY":0.0001887,"INCLINATION":42.9999,"RA_OF_ASC_NODE":126.5177,"ARG_OF_PERICENTER":277.8678,"MEAN_ANOMALY":6.9548,"EPHEMERIS_TYPE":0,"CLASSIFICATION_TYPE":"U","NORAD_CAT_ID":67032,"ELEMENT_SET_NO":999,"REV_AT_EPOCH":157,"BSTAR":-0.0085602,"MEAN_MOTION_DOT":-0.01865416,"MEAN_MOTION_DDOT":0},{"OBJECT_NAME":"STARLINK-36137","OBJECT_ID":"2025-294D","EPOCH":"2025-12-21T20:00:01.999008","MEAN_MOTION":15.85427761,"ECCENTRICITY":0.0001564,"INCLINATION":42.9997,"RA_OF_ASC_NODE":126.5234,"ARG_OF_PERICENTER":277.4038,"MEAN_ANOMALY":5.2505,"EPHEMERIS_TYPE":0,"CLASSIFICATION_TYPE":"U","NORAD_CAT_ID":67033,"ELEMENT_SET_NO":999,"REV_AT_EPOCH":157,"BSTAR":-0.0080294,"MEAN_MOTION_DOT":-0.01723298,"MEAN_MOTION_DDOT":0},{"OBJECT_NAME":"STARLINK-36140","OBJECT_ID":"2025-294E","EPOCH":"2025-12-21T14:00:01.999872","MEAN_MOTION":15.85841455,"ECCENTRICITY":0.00026588,"INCLINATION":42.9994,"RA_OF_ASC_NODE":128.0523,"ARG_OF_PERICENTER":280.9016,"MEAN_ANOMALY":17.4647,"EPHEMERIS_TYPE":0,"CLASSIFICATION_TYPE":"U","NORAD_CAT_ID":67034,"ELEMENT_SET_NO":999,"REV_AT_EPOCH":153,"BSTAR":-0.0047204163,"MEAN_MOTION_DOT":-0.01059008,"MEAN_MOTION_DDOT":0},{"OBJECT_NAME":"STARLINK-36085","OBJECT_ID":"2025-294F","EPOCH":"2025-12-21T20:00:01.999008","MEAN_MOTION":15.8543544,"ECCENTRICITY":0.000163,"INCLINATION":43,"RA_OF_ASC_NODE":126.5,"ARG_OF_PERICENTER":277.3375,"MEAN_ANOMALY":14.5028,"EPHEMERIS_TYPE":0,"CLASSIFICATION_TYPE":"U","NORAD_CAT_ID":67035,"ELEMENT_SET_NO":999,"REV_AT_EPOCH":157,"BSTAR":-0.0086301,"MEAN_MOTION_DOT":-0.0187519,"MEAN_MOTION_DDOT":0},{"OBJECT_NAME":"STARLINK-36125","OBJECT_ID":"2025-294G","EPOCH":"2025-12-21T20:00:01.999008","MEAN_MOTION":15.85470404,"ECCENTRICITY":0.0001644,"INCLINATION":42.9999,"RA_OF_ASC_NODE":126.5063,"ARG_OF_PERICENTER":278.4229,"MEAN_ANOMALY":11.0468,"EPHEMERIS_TYPE":0,"CLASSIFICATION_TYPE":"U","NORAD_CAT_ID":67036,"ELEMENT_SET_NO":999,"REV_AT_EPOCH":176,"BSTAR":-0.0087013,"MEAN_MOTION_DOT":-0.01891556,"MEAN_MOTION_DDOT":0},{"OBJECT_NAME":"STARLINK-35732","OBJECT_ID":"2025-294H","EPOCH":"2025-12-21T20:00:01.999008","MEAN_MOTION":15.85414893,"ECCENTRICITY":0.0001588,"INCLINATION":42.9998,"RA_OF_ASC_NODE":126.494,"ARG_OF_PERICENTER":274.1804,"MEAN_ANOMALY":20.1541,"EPHEMERIS_TYPE":0,"CLASSIFICATION_TYPE":"U","NORAD_CAT_ID":67037,"ELEMENT_SET_NO":999,"REV_AT_EPOCH":168,"BSTAR":-0.0086103,"MEAN_MOTION_DOT":-0.01869732,"MEAN_MOTION_DDOT":0},{"OBJECT_NAME":"STARLINK-35775","OBJECT_ID":"2025-294J","EPOCH":"2025-12-21T20:00:01.999008","MEAN_MOTION":15.8534756,"ECCENTRICITY":0.0001786,"INCLINATION":43,"RA_OF_ASC_NODE":126.4885,"ARG_OF_PERICENTER":273.2608,"MEAN_ANOMALY":23.2169,"EPHEMERIS_TYPE":0,"CLASSIFICATION_TYPE":"U","NORAD_CAT_ID":67038,"ELEMENT_SET_NO":999,"REV_AT_EPOCH":168,"BSTAR":-0.008036,"MEAN_MOTION_DOT":-0.01718888,"MEAN_MOTION_DDOT":0},{"OBJECT_NAME":"STARLINK-35705","OBJECT_ID":"2025-294K","EPOCH":"2025-12-21T20:00:01.999008","MEAN_MOTION":15.8536403,"ECCENTRICITY":0.0001696,"INCLINATION":43,"RA_OF_ASC_NODE":126.4773,"ARG_OF_PERICENTER":276.9721,"MEAN_ANOMALY":23.9927,"EPHEMERIS_TYPE":0,"CLASSIFICATION_TYPE":"U","NORAD_CAT_ID":67039,"ELEMENT_SET_NO":999,"REV_AT_EPOCH":157,"BSTAR":-0.0085033,"MEAN_MOTION_DOT":-0.01845439,"MEAN_MOTION_DDOT":0}]
