STARLINK-36192          
1 67024U 25293X   25355.58335648 -.01754495  83982-3 -57925-2 0  9992
2 67024  69.9924 298.0577 0004277 262.9237  69.5662 15.90313058  1649
STARLINK-36178          
1 67025U 25293Y   25355.83335647 -.01921391  98673-3 -66159-2 0  9993
2 67025  69.9925 297.3306 0004133 258.1327  67.2595 15.89500842  1682
STARLINK-36176          
1 67026U 25293Z   25355.83335647 -.01836376  90596-3 -63530-2 0  9998
2 67026  69.9922 297.3242 0004294 256.5247  74.2475 15.89394379  1681
STARLINK-36171          
1 67027U 25293AA  25355.83335647 -.01903004  96869-3 -65681-2 0  9990
2 67027  69.9921 297.3271 0004252 256.6124  71.8544 15.89450208  1686
STARLINK-36132          
1 67028U 25293AB  25355.83335647 -.01893669  95952-3 -65472-2 0  9996
2 67028  69.9925 297.3179 0004121 262.7296  73.3575 15.89415375  1699
STARLINK-36190          
1 67029U 25293AC  25355.83335647 -.01897505  96342-3 -65509-2 0  9995
2 67029  69.9926 297.3217 0004186 262.1621  70.9530 15.89444483  1686
STARLINK-36138          
1 67030U 25294A   25355.83335647 -.01852875  00000+0 -84926-2 0  9995
2 67030  42.9998 126.5331 0001937 277.4241   1.3835 15.85480003  1574
STARLINK-36150          
1 67031U 25294B   25355.83335647 -.01899825  00000+0 -87244-2 0  9998
2 67031  43.0000 126.5286 0001566 287.9963 352.5414 15.85519344  1761
STARLINK-36131          
1 67032U 25294C   25355.83335647 -.01865416  00000+0 -85602-2 0  9994
2 67032  42.9999 126.5177 0001887 277.8678   6.9548 15.85475936  1578
STARLINK-36137          
1 67033U 25294D   25355.83335647 -.01723298  00000+0 -80294-2 0  9998
2 67033  42.9997 126.5234 0001564 277.4038   5.2505 15.85427761  1577
STARLINK-36140          
1 67034U 25294E   25355.58335648 -.01059008  00000+0 -47204-2 0  9997
2 67034  42.9994 128.0523 0002658 280.9016  17.4647 15.85841455  1531
STARLINK-36085          
1 67035U 25294F   25355.83335647 -.01875190  00000+0 -86301-2 0  9994
2 67035  43.0000 126.5000 0001630 277.3375  14.5028 15.85435440  1570
STARLINK-36125          
1 67036U 25294G   25355.83335647 -.01891556  00000+0 -87013-2 0  9990
2 67036  42.9999 126.5063 0001644 278.4229  11.0468 15.85470404  1760
STARLINK-35732          
1 67037U 25294H   25355.83335647 -.01869732  00000+0 -86103-2 0  9991
2 67037  42.9998 126.4940 0001588 274.1804  20.1541 15.85414893  1686
STARLINK-35775          
1 67038U 25294J   25355.83335647 -.01718888  00000+0 -80360-2 0  9996
2 67038  43.0000 126.4885 0001786 273.2608  23.2169 15.85347560  1689
STARLINK-35705          
1 67039U 25294K   25355.83335647 -.01845439  00000+0 -85033-2 0  9992
2 67039  43.0000 126.4773 0001696 276.9721  23.9927 15.85364030  1570
